{"type": "FeatureCollection", "features": [ {"type": "Feature", "properties": {"norad_id": 30320, "name": "FENGYUN 1C DEB", "group": "fengyun-1c-debris", "lat": 65.83223304640734, "lon": -111.320507561424, "alt_km": 954.2585548212819, "timestamp": "2025-12-14T05:42:18.735539+00:00", "meta": {"OBJECT_NAME": "FENGYUN 1C DEB", "OBJECT_ID": "1999-025AAH", "EPOCH": "2025-12-13T03:40:59.134080", "MEAN_MOTION": 13.98555438, "ECCENTRICITY": 0.00851384, "INCLINATION": 99.1877, "RA_OF_ASC_NODE": 46.4525, "ARG_OF_PERICENTER": 293.437, "MEAN_ANOMALY": 122.9701, "EPHEMERIS_TYPE": 0, "CLASSIFICATION_TYPE": "U", "NORAD_CAT_ID": 30320, "ELEMENT_SET_NO": 999, "REV_AT_EPOCH": 96413, "BSTAR": 0.00015830726, "MEAN_MOTION_DOT": 1.88e-06, "MEAN_MOTION_DDOT": 0}, "tle": {"line1": "1 30320U 99025AAH 25347.15346220  .00000188  00000+0  15831-3 0  9994", "line2": "2 30320  99.1877  46.4525 0085138 293.4370 122.9701 13.98555438964136"}}, "geometry": {"type": "Point", "coordinates": [-111.320507561424, 65.83223304640734]}}, {"type": "Feature", "properties": {"norad_id": 30321, "name": "FENGYUN 1C DEB", "group": "fengyun-1c-debris", "lat": -78.70088726217612, "lon": 117.55446457463441, "alt_km": 806.5968562792186, "timestamp": "2025-12-14T05:42:18.735549+00:00", "meta": {"OBJECT_NAME": "FENGYUN 1C DEB", "OBJECT_ID": "1999-025AAJ", "EPOCH": "2025-12-13T12:07:05.304000", "MEAN_MOTION": 14.16642273, "ECCENTRICITY": 0.00599629, "INCLINATION": 98.6562, "RA_OF_ASC_NODE": 346.5204, "ARG_OF_PERICENTER": 234.5692, "MEAN_ANOMALY": 252.7, "EPHEMERIS_TYPE": 0, "CLASSIFICATION_TYPE": "U", "NORAD_CAT_ID": 30321, "ELEMENT_SET_NO": 999, "REV_AT_EPOCH": 97554, "BSTAR": 0.00046665177, "MEAN_MOTION_DOT": 9.05e-06, "MEAN_MOTION_DDOT": 0}, "tle": {"line1": "1 30321U 99025AAJ 25347.50492250  .00000905  00000+0  46665-3 0  9995", "line2": "2 30321  98.6562 346.5204 0059962 234.5692 252.7000 14.16642273975545"}}, "geometry": {"type": "Point", "coordinates": [117.55446457463441, -78.70088726217612]}}, {"type": "Feature", "properties": {"norad_id": 30322, "name": "FENGYUN 1C DEB", "group": "fengyun-1c-debris", "lat": -35.828637853041876, "lon": 19.697382258019918, "alt_km": 801.279019496661, "timestamp": "2025-12-14T05:42:18.735559+00:00", "meta": {"OBJECT_NAME": "FENGYUN 1C DEB", "OBJECT_ID": "1999-025AAK", "EPOCH": "2025-12-13T13:17:59.261568", "MEAN_MOTION": 14.06102042, "ECCENTRICITY": 0.01267483, "INCLINATION": 98.3981, "RA_OF_ASC_NODE": 205.1857, "ARG_OF_PERICENTER": 250.8087, "MEAN_ANOMALY": 107.933, "EPHEMERIS_TYPE": 0, "CLASSIFICATION_TYPE": "U", "NORAD_CAT_ID": 30322, "ELEMENT_SET_NO": 999, "REV_AT_EPOCH": 96211, "BSTAR": 0.0017134926, "MEAN_MOTION_DOT": 2.986e-05, "MEAN_MOTION_DDOT": 0}, "tle": {"line1": "1 30322U 99025AAK 25347.55415812  .00002986  00000+0  17135-2 0  9990", "line2": "2 30322  98.3981 205.1857 0126748 250.8087 107.9330 14.06102042962118"}}, "geometry": {"type": "Point", "coordinates": [19.697382258019918, -35.828637853041876]}}, {"type": "Feature", "properties": {"norad_id": 30325, "name": "FENGYUN 1C DEB", "group": "fengyun-1c-debris", "lat": -78.88551964136254, "lon": 136.05960392188513, "alt_km": 859.0583740213933, "timestamp": "2025-12-14T05:42:18.735569+00:00", "meta": {"OBJECT_NAME": "FENGYUN 1C DEB", "OBJECT_ID": "1999-025AAL", "EPOCH": "2025-12-12T11:33:35.800704", "MEAN_MOTION": 14.09104128, "ECCENTRICITY": 0.00152269, "INCLINATION": 98.7331, "RA_OF_ASC_NODE": 5.8403, "ARG_OF_PERICENTER": 253.9662, "MEAN_ANOMALY": 105.9832, "EPHEMERIS_TYPE": 0, "CLASSIFICATION_TYPE": "U", "NORAD_CAT_ID": 30325, "ELEMENT_SET_NO": 999, "REV_AT_EPOCH": 97012, "BSTAR": 0.00018835229, "MEAN_MOTION_DOT": 2.84e-06, "MEAN_MOTION_DDOT": 0}, "tle": {"line1": "1 30325U 99025AAL 25346.48166436  .00000284  00000+0  18835-3 0  9997", "line2": "2 30325  98.7331   5.8403 0015226 253.9662 105.9832 14.09104128970122"}}, "geometry": {"type": "Point", "coordinates": [136.05960392188513, -78.88551964136254]}}, {"type": "Feature", "properties": {"norad_id": 30326, "name": "FENGYUN 1C DEB", "group": "fengyun-1c-debris", "lat": 60.080927683101244, "lon": -139.90468982097548, "alt_km": 852.5716610813915, "timestamp": "2025-12-14T05:42:18.735579+00:00", "meta": {"OBJECT_NAME": "FENGYUN 1C DEB", "OBJECT_ID": "1999-025AAM", "EPOCH": "2025-12-13T15:33:11.154528", "MEAN_MOTION": 13.85475638, "ECCENTRICITY": 0.01423487, "INCLINATION": 98.6541, "RA_OF_ASC_NODE": 234.8966, "ARG_OF_PERICENTER": 28.1045, "MEAN_ANOMALY": 332.7705, "EPHEMERIS_TYPE": 0, "CLASSIFICATION_TYPE": "U", "NORAD_CAT_ID": 30326, "ELEMENT_SET_NO": 999, "REV_AT_EPOCH": 95468, "BSTAR": 0.00026835389, "MEAN_MOTION_DOT": 2.92e-06, "MEAN_MOTION_DDOT": 0}, "tle": {"line1": "1 30326U 99025AAM 25347.64804577  .00000292  00000+0  26835-3 0  9990", "line2": "2 30326  98.6541 234.8966 0142348  28.1045 332.7705 13.85475638954688"}}, "geometry": {"type": "Point", "coordinates": [-139.90468982097548, 60.080927683101244]}}, {"type": "Feature", "properties": {"norad_id": 30327, "name": "FENGYUN 1C DEB", "group": "fengyun-1c-debris", "lat": 71.80091747058137, "lon": 89.33465939194774, "alt_km": 753.608654940941, "timestamp": "2025-12-14T05:42:18.735589+00:00", "meta": {"OBJECT_NAME": "FENGYUN 1C DEB", "OBJECT_ID": "1999-025AAN", "EPOCH": "2025-12-13T15:48:01.550592", "MEAN_MOTION": 14.17992989, "ECCENTRICITY": 0.01170502, "INCLINATION": 98.4436, "RA_OF_ASC_NODE": 241.9237, "ARG_OF_PERICENTER": 140.1805, "MEAN_ANOMALY": 250.821, "EPHEMERIS_TYPE": 0, "CLASSIFICATION_TYPE": "U", "NORAD_CAT_ID": 30327, "ELEMENT_SET_NO": 999, "REV_AT_EPOCH": 96456, "BSTAR": 0.0019863903, "MEAN_MOTION_DOT": 4.314e-05, "MEAN_MOTION_DDOT": 0}, "tle": {"line1": "1 30327U 99025AAN 25347.65835128  .00004314  00000+0  19864-2 0  9990", "line2": "2 30327  98.4436 241.9237 0117050 140.1805 250.8210 14.17992989964569"}}, "geometry": {"type": "Point", "coordinates": [89.33465939194774, 71.80091747058137]}}, {"type": "Feature", "properties": {"norad_id": 30328, "name": "FENGYUN 1C DEB", "group": "fengyun-1c-debris", "lat": -51.82884529343249, "lon": 167.09849482032214, "alt_km": 857.3893566114357, "timestamp": "2025-12-14T05:42:18.735599+00:00", "meta": {"OBJECT_NAME": "FENGYUN 1C DEB", "OBJECT_ID": "1999-025AAP", "EPOCH": "2025-12-13T13:53:33.893664", "MEAN_MOTION": 14.12474206, "ECCENTRICITY": 0.00058062, "INCLINATION": 98.6865, "RA_OF_ASC_NODE": 357.6738, "ARG_OF_PERICENTER": 150.4029, "MEAN_ANOMALY": 333.8101, "EPHEMERIS_TYPE": 0, "CLASSIFICATION_TYPE": "U", "NORAD_CAT_ID": 30328, "ELEMENT_SET_NO": 999, "REV_AT_EPOCH": 97276, "BSTAR": 0.00018115421, "MEAN_MOTION_DOT": 2.92e-06, "MEAN_MOTION_DDOT": 0}, "tle": {"line1": "1 30328U 99025AAP 25347.57886451  .00000292  00000+0  18115-3 0  9997", "line2": "2 30328  98.6865 357.6738 0005806 150.4029 333.8101 14.12474206972760"}}, "geometry": {"type": "Point", "coordinates": [167.09849482032214, -51.82884529343249]}}, {"type": "Feature", "properties": {"norad_id": 30329, "name": "FENGYUN 1C DEB", "group": "fengyun-1c-debris", "lat": 31.073550765027644, "lon": 93.23942887368796, "alt_km": 984.1250825856096, "timestamp": "2025-12-14T05:42:18.735610+00:00", "meta": {"OBJECT_NAME": "FENGYUN 1C DEB", "OBJECT_ID": "1999-025AAQ", "EPOCH": "2025-12-13T17:09:56.560608", "MEAN_MOTION": 13.86742672, "ECCENTRICITY": 0.01423294, "INCLINATION": 99.2619, "RA_OF_ASC_NODE": 267.0791, "ARG_OF_PERICENTER": 32.9231, "MEAN_ANOMALY": 27.033, "EPHEMERIS_TYPE": 0, "CLASSIFICATION_TYPE": "U", "NORAD_CAT_ID": 30329, "ELEMENT_SET_NO": 999, "REV_AT_EPOCH": 95424, "BSTAR": 0.00060716266, "MEAN_MOTION_DOT": 7.22e-06, "MEAN_MOTION_DDOT": 0}, "tle": {"line1": "1 30329U 99025AAQ 25347.71523797  .00000722  00000+0  60716-3 0  9997", "line2": "2 30329  99.2619 267.0791 0142329  32.9231  27.0330 13.86742672954243"}}, "geometry": {"type": "Point", "coordinates": [93.23942887368796, 31.073550765027644]}}, {"type": "Feature", "properties": {"norad_id": 30330, "name": "FENGYUN 1C DEB", "group": "fengyun-1c-debris", "lat": 23.726812834398473, "lon": 164.45111194384336, "alt_km": 830.6399355415388, "timestamp": "2025-12-14T05:42:18.735620+00:00", "meta": {"OBJECT_NAME": "FENGYUN 1C DEB", "OBJECT_ID": "1999-025AAR", "EPOCH": "2025-12-13T12:09:22.681728", "MEAN_MOTION": 13.82062709, "ECCENTRICITY": 0.01876011, "INCLINATION": 98.8863, "RA_OF_ASC_NODE": 339.8186, "ARG_OF_PERICENTER": 182.7204, "MEAN_ANOMALY": 297.9482, "EPHEMERIS_TYPE": 0, "CLASSIFICATION_TYPE": "U", "NORAD_CAT_ID": 30330, "ELEMENT_SET_NO": 999, "REV_AT_EPOCH": 94668, "BSTAR": 0.0018167043, "MEAN_MOTION_DOT": 2.194e-05, "MEAN_MOTION_DDOT": 0}, "tle": {"line1": "1 30330U 99025AAR 25347.50651252  .00002194  00000+0  18167-2 0  9991", "line2": "2 30330  98.8863 339.8186 0187601 182.7204 297.9482 13.82062709946680"}}, "geometry": {"type": "Point", "coordinates": [164.45111194384336, 23.726812834398473]}}, {"type": "Feature", "properties": {"norad_id": 30331, "name": "FENGYUN 1C DEB", "group": "fengyun-1c-debris", "lat": 66.03018670376798, "lon": -136.44648215488002, "alt_km": 916.4050685897664, "timestamp": "2025-12-14T05:42:18.735651+00:00", "meta": {"OBJECT_NAME": "FENGYUN 1C DEB", "OBJECT_ID": "1999-025AAS", "EPOCH": "2025-12-13T16:00:37.732896", "MEAN_MOTION": 13.97830763, "ECCENTRICITY": 0.00963092, "INCLINATION": 98.9566, "RA_OF_ASC_NODE": 22.2208, "ARG_OF_PERICENTER": 5.4136, "MEAN_ANOMALY": 115.9572, "EPHEMERIS_TYPE": 0, "CLASSIFICATION_TYPE": "U", "NORAD_CAT_ID": 30331, "ELEMENT_SET_NO": 999, "REV_AT_EPOCH": 96132, "BSTAR": 0.00049480697, "MEAN_MOTION_DOT": 6.85e-06, "MEAN_MOTION_DDOT": 0}, "tle": {"line1": "1 30331U 99025AAS 25347.66710339  .00000685  00000+0  49481-3 0  9998", "line2": "2 30331  98.9566  22.2208 0096309   5.4136 115.9572 13.97830763961325"}}, "geometry": {"type": "Point", "coordinates": [-136.44648215488002, 66.03018670376798]}}]}